NORAD_CAT_ID,OBJECT_NAME,OBJECT_TYPE,EPOCH,MEAN_MOTION,ECCENTRICITY,INCLINATION,RA_OF_ASC_NODE,ARG_OF_PERICENTER,MEAN_ANOMALY,BSTAR,MEAN_MOTION_DOT,MEAN_MOTION_DDOT,TLE_LINE0,TLE_LINE1,TLE_LINE2,SEMIMAJOR_AXIS,PERIOD,APOGEE,PERIGEE,DECAYED
51758.0,STARLINK-3458,PAYLOAD,2022-08-31 14:00:01,15.08808315,0.0001639,53.2177,322.6699,56.591,176.704,0.001535,0.00024205,0.0,0 STARLINK-3458,1 51758U 22016AW  22243.58334491  .00024205  00000-0  15350-2 0  9996,2 51758  53.2177 322.6699 0001639  56.5910 176.7040 15.08808315  1303,6917.977,95.44,540.976,538.7080000000002,0.0
51758.0,STARLINK-3458,PAYLOAD,2022-08-31 22:00:00,15.08838867,0.0001525,53.2175,321.1722,58.4882,186.3724,-0.0016004,-0.00025667,0.0,0 STARLINK-3458,1 51758U 22016AW  22243.91667824 -.00025667  00000-0 -16004-2 0  9994,2 51758  53.2175 321.1722 0001525  58.4882 186.3724 15.08838867  1306,6917.884,95.438,540.804,538.694,0.0
51758.0,STARLINK-3458,PAYLOAD,2022-09-01 14:00:01,15.08820147,0.0001698,53.2175,318.1807,55.2678,212.8304,0.0019553,0.00030951,0.0,0 STARLINK-3458,1 51758U 22016AW  22244.58335648  .00030951  00000-0  19553-2 0  9996,2 51758  53.2175 318.1807 0001698  55.2678 212.8304 15.08820147 30836,6917.941,95.439,540.981,538.631,0.0
51758.0,STARLINK-3458,PAYLOAD,2022-09-01 22:00:00,15.088527,0.0001581,53.2175,316.6829,57.0566,222.5651,-0.0012781,-0.00020578,0.0,0 STARLINK-3458,1 51758U 22016AW  22244.91667824 -.00020578  00000-0 -12781-2 0  9999,2 51758  53.2175 316.6829 0001581  57.0566 222.5651 15.08852700  1303,6917.842,95.437,540.8,538.613,0.0
51758.0,STARLINK-3458,PAYLOAD,2022-09-02 14:00:01,15.0884361,0.0001706999999999,53.2177,313.6913,52.9165,249.9157,-0.0006616,-0.00010803,0.0,0 STARLINK-3458,1 51758U 22016AW  22245.58334491 -.00010803  00000-0 -66160-3 0  9995,2 51758  53.2177 313.6913 0001707  52.9165 249.9157 15.08843610  1309,6917.869000000002,95.437,540.915,538.553,0.0
51758.0,STARLINK-3458,PAYLOAD,2022-09-02 16:00:00,15.08834704,0.0001666999999999,53.2176,313.3172,50.6814,345.0534,0.00016168,2.286e-05,0.0,0 STARLINK-3458,1 51758U 22016AW  22245.66667824  .00002286  00000-0  16168-3 0  9990,2 51758  53.2176 313.3172 0001667  50.6814 345.0534 15.08834704 31004,6917.897,95.438,540.915,538.6080000000002,0.0
51758.0,STARLINK-3458,PAYLOAD,2022-09-02 22:00:01,15.08834916,0.0001541,53.2179,312.1934,53.881,260.6112,-0.00095348,-0.00015428,0.0,0 STARLINK-3458,1 51758U 22016AW  22245.91668981 -.00015428  00000-0 -95348-3 0  9994,2 51758  53.2179 312.1934 0001541  53.8810 260.6112 15.08834916  1301,6917.896,95.438,540.827,538.695,0.0
51758.0,STARLINK-3458,PAYLOAD,2022-09-03 14:00:01,15.08821602,0.0001724,53.2182,309.2021,50.6896,286.9252,0.0025846999999999,0.00041067,0.0,0 STARLINK-3458,1 51758U 22016AW  22246.58334491  .00041067  00000-0  25847-2 0  9996,2 51758  53.2182 309.2021 0001724  50.6896 286.9252 15.08821602  1305,6917.937,95.439,540.994,538.609,0.0
51758.0,STARLINK-3458,PAYLOAD,2022-09-03 22:00:00,15.08854293,0.0001606,53.2183,307.7042,54.3325,294.8798,-0.00058077,-9.523e-05,0.0,0 STARLINK-3458,1 51758U 22016AW  22246.91667824 -.00009523  00000-0 -58077-3 0  9997,2 51758  53.2183 307.7042 0001606  54.3325 294.8798 15.08854293 31183,6917.837,95.437,540.813,538.591,0.0
51758.0,STARLINK-3458,PAYLOAD,2022-09-04 14:00:01,15.08825665,0.0001809,53.2184,304.7129,51.9696,320.5317,0.0022596,0.00035843,0.0,0 STARLINK-3458,1 51758U 22016AW  22247.58335648  .00035843  00000-0  22596-2 0  9995,2 51758  53.2184 304.7129 0001809  51.9696 320.5317 15.08825665  1302,6917.924,95.438,541.0409999999998,538.538,0.0
51758.0,STARLINK-3458,PAYLOAD,2022-09-04 20:00:01,15.08871881,0.0001675999999999,53.2184,303.5895,53.0742,238.0587,-0.004238,-0.00067166,0.0,0 STARLINK-3458,1 51758U 22016AW  22247.83334491 -.00067166  00000-0 -42380-2 0  9996,2 51758  53.2184 303.5895 0001676  53.0742 238.0587 15.08871881  1309,6917.783,95.436,540.807,538.489,0.0
51758.0,STARLINK-3458,PAYLOAD,2022-09-05 06:00:00,15.08865789,0.0001534,53.2187,301.719,54.9264,340.6806,-0.003468,-0.00055098,0.0,0 STARLINK-3458,1 51758U 22016AW  22248.25001157 -.00055098  00000-0 -34680-2 0  9998,2 51758  53.2187 301.7190 0001534  54.9264 340.6806 15.08865789 31398,6917.802,95.436,540.7280000000002,538.605,0.0
51758.0,STARLINK-3458,PAYLOAD,2022-09-05 14:00:01,15.08794486,0.0001614,53.2184,300.224,46.5224,0.6932,0.0032296,0.00051422,0.0,0 STARLINK-3458,1 51758U 22016AW  22248.58334491  .00051422  00000-0  32296-2 0  9990,2 51758  53.2184 300.2240 0001614  46.5224   0.6932 15.08794486  1303,6918.02,95.44,541.001,538.768,0.0
51758.0,STARLINK-3458,PAYLOAD,2022-09-05 22:00:00,15.08816113,0.0001446,53.2183,298.7262,52.0308,6.7523,0.0012095,0.00019001,0.0,0 STARLINK-3458,1 51758U 22016AW  22248.91667824  .00019001  00000-0  12095-2 0  9998,2 51758  53.2183 298.7262 0001446  52.0308   6.7523 15.08816113  1300,6917.953,95.439,540.819,538.818,0.0
51758.0,STARLINK-3458,PAYLOAD,2022-09-06 14:00:01,15.08816137,0.000162,53.2178,295.7355,46.899,35.0509,0.0030494,0.00048546,0.0,0 STARLINK-3458,1 51758U 22016AW  22249.58334491  .00048546  00000-0  30494-2 0  9992,2 51758  53.2178 295.7355 0001620  46.8990  35.0509 15.08816137  1301,6917.953,95.439,540.939,538.698,0.0
51758.0,STARLINK-3458,PAYLOAD,2022-09-06 22:00:00,15.08833439,0.0001499,53.2177,294.2375,54.1491,39.3922,-0.0011828,-0.00019059,0.0,0 STARLINK-3458,1 51758U 22016AW  22249.91667824 -.00019059  00000-0 -11828-2 0  9997,2 51758  53.2177 294.2375 0001499  54.1491  39.3922 15.08833439 31648,6917.9,95.438,540.802,538.7280000000002,0.0
51758.0,STARLINK-3458,PAYLOAD,2022-09-07 14:00:01,15.0880432,0.0001717,53.217,291.2467,49.3078,67.39399999999999,0.0028769,0.00045751,0.0,0 STARLINK-3458,1 51758U 22016AW  22250.58334491  .00045751  00000-0  28769-2 0  9991,2 51758  53.2170 291.2467 0001717  49.3078  67.3940 15.08804320  1308,6917.989000000001,95.44,541.0419999999998,538.6669999999998,0.0
51758.0,STARLINK-3458,PAYLOAD,2022-09-07 22:00:00,15.08814319,0.0001565999999999,53.2168,289.7487,55.3652,72.9154,0.0017819,0.00028165,0.0,0 STARLINK-3458,1 51758U 22016AW  22250.91667824  .00028165  00000-0  17819-2 0  9991,2 51758  53.2168 289.7487 0001566  55.3652  72.9154 15.08814319 31790,6917.959,95.439,540.9069999999998,538.741,0.0
51758.0,STARLINK-3458,PAYLOAD,2022-09-08 14:00:01,15.08822926,0.0001781999999999,53.2163,286.7578,49.2538,102.2051,0.002685,0.00042683,0.0,0 STARLINK-3458,1 51758U 22016AW  22251.58334491  .00042683  00000-0  26850-2 0  9992,2 51758  53.2163 286.7578 0001782  49.2538 102.2051 15.08822926  1308,6917.933000000001,95.439,541.03,538.565,0.0
51758.0,STARLINK-3458,PAYLOAD,2022-09-09 00:00:02,15.08832619,0.0001638,53.2161,284.8851,56.4059,199.6187,0.0023168,0.00036769,0.0,0 STARLINK-3458,1 51758U 22016AW  22252.00002315  .00036769  00000-0  23168-2 0  9994,2 51758  53.2161 284.8851 0001638  56.4059 199.6187 15.08832619 31951,6917.903,95.438,540.901,538.635,0.0
51758.0,STARLINK-3458,PAYLOAD,2022-09-09 14:00:01,15.08819503,0.0001783,53.216,282.2684,46.6797,139.5897,0.0023867,0.0003788,0.0,0 STARLINK-3458,1 51758U 22016AW  22252.58334491  .00037880  00000-0  23867-2 0  9991,2 51758  53.2160 282.2684 0001783  46.6797 139.5897 15.08819503  1301,6917.943,95.439,541.0419999999998,538.575,0.0
51758.0,STARLINK-3458,PAYLOAD,2022-09-09 22:00:00,15.08820634,0.0001636999999999,53.2161,280.7701,52.1302,145.7338,0.0026061,0.0004141,0.0,0 STARLINK-3458,1 51758U 22016AW  22252.91667824  .00041410  00000-0  26061-2 0  9990,2 51758  53.2161 280.7701 0001637  52.1302 145.7338 15.08820634  1303,6917.94,95.439,540.937,538.672,0.0
51758.0,STARLINK-3458,PAYLOAD,2022-09-10 14:00:01,15.08837788,0.0001809,53.2161,277.7789,45.3543,175.7058,-0.00028386,-4.803e-05,0.0,0 STARLINK-3458,1 51758U 22016AW  22253.58334491 -.00004803  00000-0 -28386-3 0  9995,2 51758  53.2161 277.7789 0001809  45.3543 175.7058 15.08837788 32198,6917.887,95.438,541.004,538.501,0.0
51758.0,STARLINK-3458,PAYLOAD,2022-09-10 22:00:00,15.08809042,0.0001636999999999,53.2163,276.2806,50.12,182.5376,0.0028063,0.00044619,0.0,0 STARLINK-3458,1 51758U 22016AW  22253.91667824  .00044619  00000-0  28063-2 0  9999,2 51758  53.2163 276.2806 0001637  50.1200 182.5376 15.08809042  1307,6917.975,95.44,540.972,538.7080000000002,0.0
51758.0,STARLINK-3458,PAYLOAD,2022-09-11 14:00:01,15.08846808,0.0001828,53.2163,273.2892,45.0307,210.8047,0.00054835,8.451e-05,0.0,0 STARLINK-3458,1 51758U 22016AW  22254.58334491  .00008451  00000-0  54835-3 0  9995,2 51758  53.2163 273.2892 0001828  45.0307 210.8047 15.08846808  1303,6917.86,95.437,540.989,538.46,0.0
51758.0,STARLINK-3458,PAYLOAD,2022-09-11 22:00:00,15.08820529,0.0001629999999999,53.2167,271.791,49.6463,217.8023,0.0011458,0.00017985,0.0,0 STARLINK-3458,1 51758U 22016AW  22254.91667824  .00017985  00000-0  11458-2 0  9996,2 51758  53.2167 271.7910 0001630  49.6463 217.8023 15.08820529 32391,6917.94,95.439,540.933,538.677,0.0
51758.0,STARLINK-3458,PAYLOAD,2022-09-12 14:00:01,15.08841952,0.000179,53.2166,268.7996,43.8742,246.7456,0.00029357,4.387e-05,0.0,0 STARLINK-3458,1 51758U 22016AW  22255.58334491  .00004387  00000-0  29357-3 0  9991,2 51758  53.2166 268.7996 0001790  43.8742 246.7456 15.08841952  1304,6917.874,95.437,540.9780000000002,538.501,0.0
51758.0,STARLINK-3458,PAYLOAD,2022-09-12 22:00:00,15.08832439,0.0001645,53.2169,267.3015,51.7241,250.5022,0.0012916,0.00020323,0.0,0 STARLINK-3458,1 51758U 22016AW  22255.91667824  .00020323  00000-0  12916-2 0  9997,2 51758  53.2169 267.3015 0001645  51.7241 250.5022 15.08832439  1307,6917.904,95.438,540.906,538.631,0.0
51758.0,STARLINK-3458,PAYLOAD,2022-09-13 08:00:01,15.08830161,0.0001733,53.217,265.4327,44.8025,1.9073,-0.00021878,-3.767e-05,0.0,0 STARLINK-3458,1 51758U 22016AW  22256.33334491 -.00003767  00000-0 -21878-3 0  9998,2 51758  53.2170 265.4327 0001733  44.8025   1.9073 15.08830161 32617,6917.91,95.438,540.974,538.577,0.0
